[{"OBJECT_NAME":"OBJECT J","OBJECT_ID":"2023-085J","EPOCH":"2026-03-09T22:47:59.920512","MEAN_MOTION":15.31507187,"ECCENTRICITY":0.00067028,"INCLINATION":97.4828,"RA_OF_ASC_NODE":180.1819,"ARG_OF_PERICENTER":41.7877,"MEAN_ANOMALY":318.3875,"EPHEMERIS_TYPE":0,"CLASSIFICATION_TYPE":"U","NORAD_CAT_ID":57012,"ELEMENT_SET_NO":999,"REV_AT_EPOCH":15156,"BSTAR":0.00064525349,"MEAN_MOTION_DOT":0.00019595,"MEAN_MOTION_DDOT":0},{"OBJECT_NAME":"STARLINK-34189","OBJECT_ID":"2025-110AB","EPOCH":"2026-03-09T06:23:59.595072","MEAN_MOTION":15.30192207,"ECCENTRICITY":0.00011688,"INCLINATION":53.1615,"RA_OF_ASC_NODE":29.0131,"ARG_OF_PERICENTER":119.4968,"MEAN_ANOMALY":240.6149,"EPHEMERIS_TYPE":0,"CLASSIFICATION_TYPE":"U","NORAD_CAT_ID":64121,"ELEMENT_SET_NO":999,"REV_AT_EPOCH":4581,"BSTAR":0.00072221482,"MEAN_MOTION_DOT":0.00021086,"MEAN_MOTION_DDOT":0}]
